OBJECT C                
1 57582U 23117C   25210.15569067  .00007515  00000+0  28941-3 0  9994
2 57582  97.4425 284.9143 0007366 314.7862  45.2777 15.26622497109077
